[{"OBJECT_NAME":"LEMUR-2-AMANDA-SVANTE","OBJECT_ID":"2021-034B","EPOCH":"2026-03-09T18:37:58.823328","MEAN_MOTION":15.28469003,"ECCENTRICITY":0.00027027,"INCLINATION":97.5829,"RA_OF_ASC_NODE":144.8625,"ARG_OF_PERICENTER":205.4721,"MEAN_ANOMALY":154.6385,"EPHEMERIS_TYPE":0,"CLASSIFICATION_TYPE":"U","NORAD_CAT_ID":48269,"ELEMENT_SET_NO":999,"REV_AT_EPOCH":26584,"BSTAR":0.0011134246,"MEAN_MOTION_DOT":0.00030872,"MEAN_MOTION_DDOT":0},{"OBJECT_NAME":"STARLINK-31699","OBJECT_ID":"2024-074T","EPOCH":"2026-03-09T03:39:50.243040","MEAN_MOTION":15.27587018,"ECCENTRICITY":6.68e-5,"INCLINATION":43.0013,"RA_OF_ASC_NODE":346.4327,"ARG_OF_PERICENTER":316.005,"MEAN_ANOMALY":44.0749,"EPHEMERIS_TYPE":0,"CLASSIFICATION_TYPE":"U","NORAD_CAT_ID":59551,"ELEMENT_SET_NO":999,"REV_AT_EPOCH":10593,"BSTAR":-9.8611676e-5,"MEAN_MOTION_DOT":-2.975e-5,"MEAN_MOTION_DDOT":0}]
